BEIDOU-2 IGSO-1 (C06)   
1 36828U 10036A   24246.73411310 -.00000155  00000+0  00000+0 0  9995
2 36828  54.2559 168.8664 0041057 205.5493 339.0486  1.00260010 51664
BEIDOU-2 G4 (C04)       
1 37210U 10057A   24247.58754109 -.00000117  00000+0  00000+0 0  9992
2 37210   2.0303  69.5767 0006745 157.6745 127.5908  1.00272678 50752
BEIDOU-2 IGSO-2 (C07)   
1 37256U 10068A   24247.53055566 -.00000170  00000+0  00000+0 0  9999
2 37256  48.7348 279.8624 0040483 216.9751 145.3322  1.00278734 50262
BEIDOU-2 IGSO-3 (C08)   
1 37384U 11013A   24247.37908990 -.00000158  00000+0  00000+0 0  9998
2 37384  61.4746  46.3574 0032146 174.0925   5.7929  1.00289639 49124
BEIDOU-2 IGSO-4 (C09)   
1 37763U 11038A   24246.77638468 -.00000118  00000+0  00000+0 0  9995
2 37763  54.5628 171.4970 0129012 229.4788 314.5152  1.00291699 48103
BEIDOU-2 IGSO-5 (C10)   
1 37948U 11073A   24247.52503473 -.00000146  00000+0  00000+0 0  9991
2 37948  48.8689 279.5549 0103117 221.4279 127.4695  1.00276074 46592
BEIDOU-2 G5 (C05)       
1 38091U 12008A   24247.51261477  .00000050  00000+0  00000+0 0  9997
2 38091   2.2631  71.2585 0004408 213.7442 301.3570  1.00273422 45834
BEIDOU-2 M3 (C11)       
1 38250U 12018A   24247.32833840 -.00000089  00000+0  00000+0 0  9996
2 38250  56.2828 326.7421 0023765 260.8207  98.9709  1.86231401 83801
BEIDOU-2 M4 (C12)       
1 38251U 12018B   24247.25822040 -.00000088  00000+0  00000+0 0  9998
2 38251  56.1891 326.0099 0014694 260.3899  99.5051  1.86232090 83800
BEIDOU-2 M6 (C14)       
1 38775U 12050B   24246.96781660  .00000003  00000+0  00000+0 0  9990
2 38775  55.9755  84.5633 0011473 348.7080  11.3474  1.86231256 81163
BEIDOU-2 G6 (C02)       
1 38953U 12059A   24247.58916453 -.00000182  00000+0  00000+0 0  9995
2 38953   2.7551  79.8787 0007078 314.5125 244.9143  1.00274773 43374
BEIDOU-3S IGSO-1S (C31) 
1 40549U 15019A   24247.63287588 -.00000156  00000+0  00000+0 0  9995
2 40549  50.4256 303.2645 0036550 196.4470 167.0527  1.00288980 34549
BEIDOU-3S M2S (C58)     
1 40748U 15037A   24246.38385986 -.00000087  00000+0  00000+0 0  9991
2 40748  55.4192 324.4113 0011857 247.4684 112.4662  1.86231946 61960
BEIDOU-3S M1S (C57)     
1 40749U 15037B   24247.19334624 -.00000086  00000+0  00000+0 0  9994
2 40749  55.4214 324.3702 0002685 320.9071  39.1356  1.86227683 61985
BEIDOU-3S IGSO-2S (C56) 
1 40938U 15053A   24247.51992087 -.00000099  00000+0  00000+0 0  9995
2 40938  50.2377 266.4870 0053196 189.8730 169.0917  1.00289056 32811
BEIDOU-2 IGSO-6 (C13)   
1 41434U 16021A   24246.90094699 -.00000121  00000+0  00000+0 0  9993
2 41434  59.2943  44.5630 0049564 221.2241 133.4205  1.00257558 30930
BEIDOU-2 G7 (C03)       
1 41586U 16037A   24247.64290451 -.00000360  00000+0  00000+0 0  9999
2 41586   1.5644  65.5947 0006966 357.8219 261.8571  1.00270194   356
BEIDOU-3 M1 (C19)       
1 43001U 17069A   24246.19681130  .00000005  00000+0  00000+0 0  9991
2 43001  56.1249  84.6954 0007542 311.1110  48.9065  1.86231632 46441
BEIDOU-3 M2 (C20)       
1 43002U 17069B   24246.13424141  .00000005  00000+0  00000+0 0  9993
2 43002  56.1240  84.7337 0006276 345.6323  14.4327  1.86231105 46433
BEIDOU-3 M7 (C27)       
1 43107U 18003A   24246.41954689 -.00000089  00000+0  00000+0 0  9997
2 43107  54.8777 324.9670 0003105  88.3245 271.7699  1.86232651 45199
BEIDOU-3 M8 (C28)       
1 43108U 18003B   24246.89758143 -.00000089  00000+0  00000+0 0  9997
2 43108  54.8702 324.9358 0004406 249.1677 110.8454  1.86231095 45218
BEIDOU-3 M4 (C22)       
1 43207U 18018A   24245.19100985  .00000004  00000+0  00000+0 0  9996
2 43207  56.0829  84.8152 0005524  25.6094 334.5013  1.86231541 44567
BEIDOU-3 M3 (C21)       
1 43208U 18018B   24246.86849614  .00000004  00000+0  00000+0 0  9991
2 43208  56.0842  84.7639 0005709 331.1637  28.8864  1.86231501 44591
BEIDOU-3 M9 (C29)       
1 43245U 18029A   24247.08898826 -.00000085  00000+0  00000+0 0  9998
2 43245  54.7579 322.6440 0001763 224.4833 135.5661  1.86232955 43758
BEIDOU-3 M10 (C30)      
1 43246U 18029B   24246.48159301 -.00000085  00000+0  00000+0 0  9990
2 43246  54.7558 322.6929 0002514 358.4767   1.5845  1.86233121 43737
BEIDOU-2 IGSO-7 (C16)   
1 43539U 18057A   24246.66890606 -.00000164  00000+0  00000+0 0  9994
2 43539  55.1493 168.7147 0078547 233.9229 292.5935  1.00288610 22597
BEIDOU-3 M5 (C23)       
1 43581U 18062A   24247.24254690 -.00000008  00000+0  00000+0 0  9996
2 43581  54.1266 204.4764 0004907 287.2354  72.6663  1.86228865 41499
BEIDOU-3 M6 (C24)       
1 43582U 18062B   24247.10801595 -.00000010  00000+0  00000+0 0  9997
2 43582  54.1264 204.4705 0005170   5.8311 354.1299  1.86229918 41496
BEIDOU-3 M12 (C26)      
1 43602U 18067A   24242.20830975  .00000007  00000+0  00000+0 0  9990
2 43602  54.2181 203.3252 0007243  20.4465 339.5484  1.86229639 40884
BEIDOU-3 M11 (C25)      
1 43603U 18067B   24247.17455954 -.00000010  00000+0  00000+0 0  9997
2 43603  54.2146 203.1218 0004169   5.8897 354.0707  1.86231516 41008
BEIDOU-3 M13 (C32)      
1 43622U 18072A   24246.06255983  .00000004  00000+0  00000+0 0  9993
2 43622  56.0547  84.3154 0004351 311.6257  48.4192  1.86231552 40497
BEIDOU-3 M14 (C33)      
1 43623U 18072B   24246.46496957  .00000004  00000+0  00000+0 0  9996
2 43623  56.0573  84.2954 0003404   4.1371 355.9474  1.86231582 40495
BEIDOU-3 M16 (C35)      
1 43647U 18078A   24247.16417134 -.00000085  00000+0  00000+0 0  9996
2 43647  54.6544 322.7337 0005834  16.1741 343.9081  1.86232380 40017
BEIDOU-3 M15 (C34)      
1 43648U 18078B   24247.29330343 -.00000085  00000+0  00000+0 0  9997
2 43648  54.6500 322.7318 0002544  26.0194 334.0572  1.86232434 40034
BEIDOU-3 G1 (C59)       
1 43683U 18085A   24247.54714079 -.00000287  00000+0  00000+0 0  9998
2 43683   2.3797 106.6924 0002429  29.9938 183.3536  1.00266181 21523
BEIDOU-3 M17 (C36)      
1 43706U 18093A   24246.90755277 -.00000012  00000+0  00000+0 0  9993
2 43706  54.2096 204.4321 0009789 285.9404  73.9065  1.86228506 39391
BEIDOU-3 M18 (C37)      
1 43707U 18093B   24247.30921955 -.00000008  00000+0  00000+0 0  9992
2 43707  54.2104 204.4102 0008085 312.7948  47.0926  1.86230061 39396
BEIDOU-3 IGSO-1 (C38)   
1 44204U 19023A   24247.29535381 -.00000196  00000+0  00000+0 0  9999
2 44204  57.7613  44.4073 0023791 205.2969 319.1823  1.00278497   670
BEIDOU-2 G8 (C01)       
1 44231U 19027A   24247.54895407 -.00000254  00000+0  00000+0 0  9994
2 44231   1.6661  74.3049 0002758 180.9751  70.0545  1.00273422 19547
BEIDOU-3 IGSO-2 (C39)   
1 44337U 19035A   24247.42856601 -.00000158  00000+0  00000+0 0  9993
2 44337  55.1825 164.5846 0034750 203.5809 248.3622  1.00273221 19138
BEIDOU-3 M24 (C46)      
1 44542U 19061A   24246.84199864 -.00000012  00000+0  00000+0 0  9995
2 44542  54.4373 204.7360 0008385 349.4172  10.5197  1.86229439 33646
BEIDOU-3 M23 (C45)      
1 44543U 19061B   24247.50948708 -.00000005  00000+0  00000+0 0  9991
2 44543  54.4357 204.6822 0005727 332.7789  27.2218  1.86229700 33669
BEIDOU-3 IGSO-3 (C40)   
1 44709U 19073A   24247.51466388 -.00000150  00000+0  00000+0 0  9999
2 44709  55.9160 287.8967 0041409 190.3755 169.6442  1.00278790 17900
BEIDOU-3 M22 (C44)      
1 44793U 19078A   24247.22435263 -.00000085  00000+0  00000+0 0  9990
2 44793  54.5020 322.6541 0004575  24.1277 335.9573  1.86232381 32501
BEIDOU-3 M21 (C43)      
1 44794U 19078B   24247.35394975 -.00000085  00000+0  00000+0 0  9999
2 44794  54.4753 322.6240 0002518  11.6969 348.3729  1.86232802 32514
BEIDOU-3 M19 (C41)      
1 44864U 19090A   24247.35167309  .00000002  00000+0  00000+0 0  9998
2 44864  55.9903  84.4393 0015445 282.4213 268.6241  1.86231927 32093
BEIDOU-3 M20 (C42)      
1 44865U 19090B   24247.23623208  .00000002  00000+0  00000+0 0  9991
2 44865  55.9918  84.4766 0013205 297.9640 265.3927  1.86231851 32070
BEIDOU-3 G2 (C60)       
1 45344U 20017A   24247.51687191 -.00000148  00000+0  00000+0 0  9999
2 45344   2.4162  32.4433 0003077 173.4955  43.3011  1.00271729 16724
BEIDOU-3 G3 (C61)       
1 45807U 20040A   24246.66437307 -.00000363  00000+0  00000+0 0  9995
2 45807   0.9171  50.3777 0002078 342.9675 298.4796  1.00264318 15529
BEIDOU-3 G4             
1 56564U 23066A   24247.63030014 -.00000120  00000+0  00000+0 0  9991
2 56564   1.9319 288.3945 0005968 227.1805 214.5728  1.00271651  4863
BEIDOU-3 M25            
1 58654U 23207A   24244.21513860 -.00000004  00000+0  00000+0 0  9997
2 58654  55.1714  84.5075 0000323 332.1740  27.9057  1.86232370  4646
BEIDOU-3 M26            
1 58655U 23207B   24247.23594541  .00000000  00000+0  00000+0 0  9993
2 58655  55.1764  84.3903 0001421 229.3782 130.6895  1.86231971  4685
